[{"OBJECT_NAME":"ONEWEB-0436","OBJECT_ID":"2022-012M","EPOCH":"2024-01-28T21:48:24.647040","MEAN_MOTION":13.17646142,"ECCENTRICITY":0.0001288,"INCLINATION":87.9225,"RA_OF_ASC_NODE":178.9223,"ARG_OF_PERICENTER":96.2393,"MEAN_ANOMALY":263.8886,"EPHEMERIS_TYPE":0,"CLASSIFICATION_TYPE":"U","NORAD_CAT_ID":51633,"ELEMENT_SET_NO":999,"REV_AT_EPOCH":9907,"BSTAR":0.00086417,"MEAN_MOTION_DOT":3.48e-6,"MEAN_MOTION_DDOT":0},{"OBJECT_NAME":"ONEWEB-0438","OBJECT_ID":"2022-012N","EPOCH":"2024-01-29T11:12:27.146304","MEAN_MOTION":13.10377633,"ECCENTRICITY":0.0001427,"INCLINATION":87.8911,"RA_OF_ASC_NODE":209.0275,"ARG_OF_PERICENTER":103.0119,"MEAN_ANOMALY":257.1168,"EPHEMERIS_TYPE":0,"CLASSIFICATION_TYPE":"U","NORAD_CAT_ID":51634,"ELEMENT_SET_NO":999,"REV_AT_EPOCH":9673,"BSTAR":0.00037049,"MEAN_MOTION_DOT":1.42e-6,"MEAN_MOTION_DDOT":0},{"OBJECT_NAME":"ONEWEB-0439","OBJECT_ID":"2022-012P","EPOCH":"2024-01-28T22:27:27.021024","MEAN_MOTION":13.10375105,"ECCENTRICITY":0.0001489,"INCLINATION":87.891,"RA_OF_ASC_NODE":209.1161,"ARG_OF_PERICENTER":90.4139,"MEAN_ANOMALY":269.7159,"EPHEMERIS_TYPE":0,"CLASSIFICATION_TYPE":"U","NORAD_CAT_ID":51635,"ELEMENT_SET_NO":999,"REV_AT_EPOCH":9535,"BSTAR":0.0012266,"MEAN_MOTION_DOT":4.41e-6,"MEAN_MOTION_DDOT":0},{"OBJECT_NAME":"ONEWEB-0442","OBJECT_ID":"2022-012Q","EPOCH":"2024-01-29T10:22:24.643488","MEAN_MOTION":13.17663611,"ECCENTRICITY":0.0001059,"INCLINATION":87.9231,"RA_OF_ASC_NODE":178.8487,"ARG_OF_PERICENTER":110.3606,"MEAN_ANOMALY":249.764,"EPHEMERIS_TYPE":0,"CLASSIFICATION_TYPE":"U","NORAD_CAT_ID":51636,"ELEMENT_SET_NO":999,"REV_AT_EPOCH":10042,"BSTAR":-0.0087563,"MEAN_MOTION_DOT":-3.386e-5,"MEAN_MOTION_DDOT":0},{"OBJECT_NAME":"ONEWEB-0443","OBJECT_ID":"2022-012R","EPOCH":"2024-01-28T22:04:21.516672","MEAN_MOTION":13.17647444,"ECCENTRICITY":0.0002016,"INCLINATION":87.923,"RA_OF_ASC_NODE":178.9558,"ARG_OF_PERICENTER":109.1969,"MEAN_ANOMALY":250.9381,"EPHEMERIS_TYPE":0,"CLASSIFICATION_TYPE":"U","NORAD_CAT_ID":51637,"ELEMENT_SET_NO":999,"REV_AT_EPOCH":10040,"BSTAR":-7.1732e-5,"MEAN_MOTION_DOT":-1.5e-7,"MEAN_MOTION_DDOT":0},{"OBJECT_NAME":"ONEWEB-0444","OBJECT_ID":"2022-012S","EPOCH":"2024-01-29T00:03:21.242880","MEAN_MOTION":13.10376134,"ECCENTRICITY":0.0001688,"INCLINATION":87.8905,"RA_OF_ASC_NODE":209.132,"ARG_OF_PERICENTER":98.6952,"MEAN_ANOMALY":261.4367,"EPHEMERIS_TYPE":0,"CLASSIFICATION_TYPE":"U","NORAD_CAT_ID":51638,"ELEMENT_SET_NO":999,"REV_AT_EPOCH":9666,"BSTAR":-0.00034639,"MEAN_MOTION_DOT":-1.08e-6,"MEAN_MOTION_DDOT":0},{"OBJECT_NAME":"ONEWEB-0445","OBJECT_ID":"2022-012T","EPOCH":"2024-01-28T22:43:50.430144","MEAN_MOTION":13.10380304,"ECCENTRICITY":0.0001153,"INCLINATION":87.8897,"RA_OF_ASC_NODE":209.1213,"ARG_OF_PERICENTER":86.3611,"MEAN_ANOMALY":273.7648,"EPHEMERIS_TYPE":0,"CLASSIFICATION_TYPE":"U","NORAD_CAT_ID":51639,"ELEMENT_SET_NO":999,"REV_AT_EPOCH":9537,"BSTAR":0.0019282,"MEAN_MOTION_DOT":6.86e-6,"MEAN_MOTION_DDOT":0},{"OBJECT_NAME":"ONEWEB-0446","OBJECT_ID":"2022-012U","EPOCH":"2024-01-29T11:00:44.469792","MEAN_MOTION":13.10375864,"ECCENTRICITY":0.0001359,"INCLINATION":87.8909,"RA_OF_ASC_NODE":209.0315,"ARG_OF_PERICENTER":83.2494,"MEAN_ANOMALY":276.8788,"EPHEMERIS_TYPE":0,"CLASSIFICATION_TYPE":"U","NORAD_CAT_ID":51640,"ELEMENT_SET_NO":999,"REV_AT_EPOCH":9672,"BSTAR":-0.00079094,"MEAN_MOTION_DOT":-2.63e-6,"MEAN_MOTION_DDOT":0},{"OBJECT_NAME":"ONEWEB-0448","OBJECT_ID":"2022-012V","EPOCH":"2024-01-29T00:08:02.228640","MEAN_MOTION":13.10375726,"ECCENTRICITY":0.0001636,"INCLINATION":87.891,"RA_OF_ASC_NODE":209.1225,"ARG_OF_PERICENTER":98.7552,"MEAN_ANOMALY":261.3761,"EPHEMERIS_TYPE":0,"CLASSIFICATION_TYPE":"U","NORAD_CAT_ID":51641,"ELEMENT_SET_NO":999,"REV_AT_EPOCH":9662,"BSTAR":0.00017586,"MEAN_MOTION_DOT":7.4e-7,"MEAN_MOTION_DDOT":0},{"OBJECT_NAME":"ONEWEB-0449","OBJECT_ID":"2022-012W","EPOCH":"2024-01-29T11:14:48.142464","MEAN_MOTION":13.10375291,"ECCENTRICITY":0.0001324,"INCLINATION":87.8904,"RA_OF_ASC_NODE":209.034,"ARG_OF_PERICENTER":103.4426,"MEAN_ANOMALY":256.6849,"EPHEMERIS_TYPE":0,"CLASSIFICATION_TYPE":"U","NORAD_CAT_ID":51642,"ELEMENT_SET_NO":999,"REV_AT_EPOCH":9670,"BSTAR":0.00061376,"MEAN_MOTION_DOT":2.27e-6,"MEAN_MOTION_DDOT":0},{"OBJECT_NAME":"ONEWEB-0451","OBJECT_ID":"2022-012X","EPOCH":"2024-01-28T21:41:34.226304","MEAN_MOTION":13.17650044,"ECCENTRICITY":0.0001647,"INCLINATION":87.9224,"RA_OF_ASC_NODE":178.9232,"ARG_OF_PERICENTER":106.908,"MEAN_ANOMALY":253.2232,"EPHEMERIS_TYPE":0,"CLASSIFICATION_TYPE":"U","NORAD_CAT_ID":51643,"ELEMENT_SET_NO":999,"REV_AT_EPOCH":9905,"BSTAR":-0.00012695,"MEAN_MOTION_DOT":-3.6e-7,"MEAN_MOTION_DDOT":0},{"OBJECT_NAME":"ONEWEB-0452","OBJECT_ID":"2022-012Y","EPOCH":"2024-01-28T21:39:16.949664","MEAN_MOTION":13.17650591,"ECCENTRICITY":0.0001508,"INCLINATION":87.9231,"RA_OF_ASC_NODE":178.9548,"ARG_OF_PERICENTER":116.9256,"MEAN_ANOMALY":243.203,"EPHEMERIS_TYPE":0,"CLASSIFICATION_TYPE":"U","NORAD_CAT_ID":51644,"ELEMENT_SET_NO":999,"REV_AT_EPOCH":9906,"BSTAR":1.7607e-5,"MEAN_MOTION_DOT":2.0e-7,"MEAN_MOTION_DDOT":0},{"OBJECT_NAME":"ONEWEB-0456","OBJECT_ID":"2022-012AA","EPOCH":"2024-01-28T22:39:10.201248","MEAN_MOTION":13.10373954,"ECCENTRICITY":0.0001738,"INCLINATION":87.8895,"RA_OF_ASC_NODE":209.1144,"ARG_OF_PERICENTER":80.6546,"MEAN_ANOMALY":279.4778,"EPHEMERIS_TYPE":0,"CLASSIFICATION_TYPE":"U","NORAD_CAT_ID":51646,"ELEMENT_SET_NO":999,"REV_AT_EPOCH":9537,"BSTAR":0.001946,"MEAN_MOTION_DOT":6.92e-6,"MEAN_MOTION_DDOT":0},{"OBJECT_NAME":"ONEWEB-0457","OBJECT_ID":"2022-012AB","EPOCH":"2024-01-29T10:56:03.921216","MEAN_MOTION":13.10376004,"ECCENTRICITY":0.0001172,"INCLINATION":87.8908,"RA_OF_ASC_NODE":209.0231,"ARG_OF_PERICENTER":104.1881,"MEAN_ANOMALY":255.9376,"EPHEMERIS_TYPE":0,"CLASSIFICATION_TYPE":"U","NORAD_CAT_ID":51647,"ELEMENT_SET_NO":999,"REV_AT_EPOCH":9674,"BSTAR":-0.0011889,"MEAN_MOTION_DOT":-4.02e-6,"MEAN_MOTION_DDOT":0},{"OBJECT_NAME":"ONEWEB-0458","OBJECT_ID":"2022-012AC","EPOCH":"2024-01-28T22:36:49.439232","MEAN_MOTION":13.10373295,"ECCENTRICITY":0.0001602,"INCLINATION":87.8908,"RA_OF_ASC_NODE":209.1387,"ARG_OF_PERICENTER":101.4407,"MEAN_ANOMALY":258.6901,"EPHEMERIS_TYPE":0,"CLASSIFICATION_TYPE":"U","NORAD_CAT_ID":51648,"ELEMENT_SET_NO":999,"REV_AT_EPOCH":9533,"BSTAR":0.0017762,"MEAN_MOTION_DOT":6.33e-6,"MEAN_MOTION_DDOT":0},{"OBJECT_NAME":"ONEWEB-0461","OBJECT_ID":"2022-012AD","EPOCH":"2024-01-28T22:11:11.730048","MEAN_MOTION":13.17647899,"ECCENTRICITY":0.0001353,"INCLINATION":87.9225,"RA_OF_ASC_NODE":178.9247,"ARG_OF_PERICENTER":100.5547,"MEAN_ANOMALY":259.5737,"EPHEMERIS_TYPE":0,"CLASSIFICATION_TYPE":"U","NORAD_CAT_ID":51649,"ELEMENT_SET_NO":999,"REV_AT_EPOCH":9928,"BSTAR":0.00011348,"MEAN_MOTION_DOT":5.7e-7,"MEAN_MOTION_DDOT":0},{"OBJECT_NAME":"ONEWEB-0463","OBJECT_ID":"2022-012AE","EPOCH":"2024-01-28T21:46:09.015456","MEAN_MOTION":13.17652297,"ECCENTRICITY":0.0001426,"INCLINATION":87.923,"RA_OF_ASC_NODE":178.9688,"ARG_OF_PERICENTER":102.966,"MEAN_ANOMALY":257.1631,"EPHEMERIS_TYPE":0,"CLASSIFICATION_TYPE":"U","NORAD_CAT_ID":51650,"ELEMENT_SET_NO":999,"REV_AT_EPOCH":9906,"BSTAR":-5.5684e-5,"MEAN_MOTION_DOT":-9.0e-8,"MEAN_MOTION_DDOT":0}]
