ONEWEB-0436             
1 51633U 22012M   24028.90861860  .00000348  00000+0  86417-3 0  9992
2 51633  87.9225 178.9223 0001288  96.2393 263.8886 13.17646142 99077
ONEWEB-0438             
1 51634U 22012N   24029.46698086  .00000142  00000+0  37049-3 0  9992
2 51634  87.8911 209.0275 0001427 103.0119 257.1168 13.10377633 96738
ONEWEB-0439             
1 51635U 22012P   24028.93572941  .00000441  00000+0  12266-2 0  9990
2 51635  87.8910 209.1161 0001489  90.4139 269.7159 13.10375105 95350
ONEWEB-0442             
1 51636U 22012Q   24029.43222967 -.00003386  00000+0 -87563-2 0  9992
2 51636  87.9231 178.8487 0001059 110.3606 249.7640 13.17663611100422
ONEWEB-0443             
1 51637U 22012R   24028.91969348 -.00000015  00000+0 -71732-4 0  9995
2 51637  87.9230 178.9558 0002016 109.1969 250.9381 13.17647444100404
ONEWEB-0444             
1 51638U 22012S   24029.00232920 -.00000108  00000+0 -34639-3 0  9993
2 51638  87.8905 209.1320 0001688  98.6952 261.4367 13.10376134 96666
ONEWEB-0445             
1 51639U 22012T   24028.94711146  .00000686  00000+0  19282-2 0  9993
2 51639  87.8897 209.1213 0001153  86.3611 273.7648 13.10380304 95370
ONEWEB-0446             
1 51640U 22012U   24029.45884803 -.00000263  00000+0 -79094-3 0  9994
2 51640  87.8909 209.0315 0001359  83.2494 276.8788 13.10375864 96725
ONEWEB-0448             
1 51641U 22012V   24029.00558135  .00000074  00000+0  17586-3 0  9998
2 51641  87.8910 209.1225 0001636  98.7552 261.3761 13.10375726 96629
ONEWEB-0449             
1 51642U 22012W   24029.46861276  .00000227  00000+0  61376-3 0  9998
2 51642  87.8904 209.0340 0001324 103.4426 256.6849 13.10375291 96708
ONEWEB-0451             
1 51643U 22012X   24028.90386836 -.00000036  00000+0 -12695-3 0  9991
2 51643  87.9224 178.9232 0001647 106.9080 253.2232 13.17650044 99050
ONEWEB-0452             
1 51644U 22012Y   24028.90227951  .00000020  00000+0  17607-4 0  9994
2 51644  87.9231 178.9548 0001508 116.9256 243.2030 13.17650591 99064
ONEWEB-0456             
1 51646U 22012AA  24028.94386807  .00000692  00000+0  19460-2 0  9998
2 51646  87.8895 209.1144 0001738  80.6546 279.4778 13.10373954 95372
ONEWEB-0457             
1 51647U 22012AB  24029.45560094 -.00000402  00000+0 -11889-2 0  9996
2 51647  87.8908 209.0231 0001172 104.1881 255.9376 13.10376004 96744
ONEWEB-0458             
1 51648U 22012AC  24028.94223888  .00000633  00000+0  17762-2 0  9997
2 51648  87.8908 209.1387 0001602 101.4407 258.6901 13.10373295 95337
ONEWEB-0461             
1 51649U 22012AD  24028.92444132  .00000057  00000+0  11348-3 0  9998
2 51649  87.9225 178.9247 0001353 100.5547 259.5737 13.17647899 99283
ONEWEB-0463             
1 51650U 22012AE  24028.90704879 -.00000009  00000+0 -55684-4 0  9996
2 51650  87.9230 178.9688 0001426 102.9660 257.1631 13.17652297 99064
